STARLINK-5739           
1 55571U 23020C   26068.14508326  .00000075  00000+0  20626-4 0  9992
2 55571  43.0046   7.9200 0000829 285.7649  74.3102 15.02532576168839
QPS-SAR-8 (AMATERU-IV)  
1 60542U 24149CC  26068.70418071  .00008268  00000+0  61811-3 0  9990
2 60542  97.6699 148.7511 0003873  93.1500 267.0168 15.03026697 85328
